{"type":"FeatureCollection","features":[{"type":"Feature","geometry":{"type":"Point","coordinates":[-121.29018,38.620918]},"properties":{"job_number":"J0002","user_name":"Roger Erismann","form_data":{"trunk":{"cracks":null,"sap_ooze":false,"poor_taper":false,"section_id":"trunk","lean_degrees":null,"included_bark":false,"main_concerns":"there are none","lean_corrected":"no lean","load_on_defect":null,"conks_mushrooms":false,"heartwood_decay":false,"response_growth":"none","codominant_stems":true,"lightning_damage":false,"dead_missing_bark":false,"cankers_galls_burls":false,"sapwood_damage_decay":false,"likelihood_of_failure":null,"cavity_nest_hole_depth":null,"cavity_nest_hole_percent":null,"abnormal_bark_texture_color":false},"data_status":{"status":"final","section_id":"data_status"},"load_factors":{"section_id":"load_factors","crown_density":"normal","wind_exposure":"partial","wind_funneling":null,"relative_crown_size":"medium","wind_funneling_notes":null,"interior_branches_density":"dense","vines_mistletoe_moss_notes":"No vines/mistletoe/moss observed","vines_mistletoe_moss_present":false,"recent_change_in_load_factors":"none noted"},"site_factors":{"notes":null,"topography":{"flat":true,"slope":false,"aspect":null,"slope_percent":null},"site_changes":{"none":true,"root_cuts":false,"grade_change":false,"site_clearing":false,"landscape_environment":"large urban park","changed_soil_hydrology":false},"common_weather":{"ice":null,"snow":null,"describe":"strong winds, heavy rain","heavy_rain":true,"strong_winds":true},"soil_conditions":{"percent":25,"shallow":null,"describe":"25% paved roots","compacted":null,"saturated":null,"limited_volume":null,"pavement_over_roots":true},"history_of_failures":"No history of failures","prevailing_wind_direction":"W","section_id":"site_factors"},"work_priority":{"priority":"4","section_id":"work_priority"},"target_assessment":{"section_id":"target_assessment","targets":[{"target_number":"1","label":"ParkingLot","zone_within_drip_line":true,"zone_within_1x_height":null,"zone_within_1_5x_height":null,"occupancy_rate":2,"practical_to_move":false,"restriction_practical":false}]},"crown_and_branches":{"conks":false,"cracks":false,"codominant":false,"dead_twigs":true,"section_id":"crown_and_branches","lcr_percent":65,"cracks_notes":null,"included_bark":false,"main_concerns":"the branches that extend over the parking lot, and a few that are overextended in some of these dead branches that are relatively small but are still present.","load_on_defect":null,"heartwood_decay":false,"pruning_history":{"other":"professionally maintained","raised":null,"topped":null,"reduced":null,"thinned":null,"flush_cuts":null,"lion_tailed":null,"crown_cleaned":null},"response_growth":null,"codominant_notes":null,"lightning_damage":false,"unbalanced_crown":null,"weak_attachments":false,"dead_missing_bark":false,"dead_twigs_max_dia":1,"dead_twigs_percent":5,"cankers_galls_burls":false,"load_on_defect_notes":null,"sapwood_damage_decay":false,"broken_hangers_number":0,"heartwood_decay_notes":null,"likelihood_of_failure":null,"broken_hangers_max_dia":null,"over_extended_branches":true,"weak_attachments_notes":null,"cavity_nest_hole_percent":null,"previous_branch_failures":null,"similar_branches_present":false,"likelihood_of_failure_notes":null,"previous_branch_failures_notes":null},"mitigation_options":{"options":[{"option":"maintain pruning schedule","residual_risk":"low"}],"section_id":"mitigation_options"},"client_tree_details":{"of":1,"dbh":23,"sheet":1,"height":60,"section_id":"client_tree_details","time_frame":"18th month","tools_used":"binoculars, measuring tape, visual inspection","tree_number":"1","tree_species":"Quercus agrifolia","crown_spread_dia":60,"gps":{"latitude":38.620918,"longitude":-121.29018}},"risk_categorization":[{"condition":"the branches overhanging the parking lot","part_size":"1-2\"","tree_part":null,"risk_rating":"low","consequences":"minor","fall_distance":"30'","target_number":"1","condition_number":"1","impact_likelihood":"medium","target_protection":"none","failure_and_impact":"unlikely","failure_likelihood":"possible"}],"overall_residual_risk":{"rating":"low","section_id":"overall_residual_risk"},"roots_and_root_collar":{"dead":false,"ooze":false,"decay":false,"cavity":false,"cracks":false,"section_id":"roots_and_root_collar","collar_depth":null,"main_concerns":"the pavement over the roots and the damage that it may cause","soil_weakness":false,"stem_girdling":false,"cavity_percent":null,"load_on_defect":null,"conks_mushrooms":false,"response_growth":null,"cut_damaged_roots":false,"root_plate_lifting":false,"distance_from_trunk":null,"likelihood_of_failure":null,"collar_buried_not_visible":false},"inspection_limitations":{"none":false,"vines":false,"access":false,"section_id":"inspection_limitations","visibility":true,"root_collar_buried":false},"tree_health_and_species":{"pests":"No pests observed","vigor":"high","abiotic":"No abiotic stress observed","foliage":{"none_dead":null,"none_seasonal":null,"normal_percent":100,"necrotic_percent":null,"chlorotic_percent":null},"section_id":"tree_health_and_species","species_failure_profile":{"roots":true,"trunk":null,"branches":true,"describe":"Pavement over roots and extended leaders over parking lot."}},"overall_tree_risk_rating":{"rating":"low","section_id":"overall_tree_risk_rating"},"advanced_assessment_needed":{"needed":"no","section_id":"advanced_assessment_needed"},"advanced_assessment_type_reason":{"section_id":"advanced_assessment_type_reason"},"inspection_limitations_describe":{"text":"dense crown reduced visibility","section_id":"inspection_limitations_describe"},"notes_explanations_descriptions":{"notes":"The tree risk assessment indicates the oak tree is healthy with some dead branches. Regular pruning is noted. Low risk for damage exists, as there are no hangers. Software testing is also being conducted.","section_id":"notes_explanations_descriptions"},"recommended_inspection_interval":{"text":"18 months","section_id":"recommended_inspection_interval"}},"images":[{"caption":"The tree: parking lot with cars","uploaded_at":"2026-03-30T23:51:33.826458Z"},{"caption":"Trunk","uploaded_at":"2026-03-30T23:51:36.556725Z"},{"caption":"interior branch density","uploaded_at":"2026-03-30T23:51:39.072879Z"},{"caption":"The tree in the centef","uploaded_at":"2026-03-24T19:16:51.941624Z"},{"caption":"Roots covered by asphalt","uploaded_at":"2026-03-24T19:16:54.052387Z"}]}}]}