{"type":"FeatureCollection","features":[{"type":"Feature","geometry":{"type":"Point","coordinates":[-121.278212,38.614122]},"properties":{"job_number":"J0005","user_name":"Roger Erismann","form_data":{"trunk":{"cracks":false,"sap_ooze":null,"poor_taper":null,"section_id":"trunk","lean_degrees":null,"included_bark":true,"main_concerns":"the one co-dominant stem with included bark in the trunk","lean_corrected":null,"load_on_defect":"minor","conks_mushrooms":null,"heartwood_decay":null,"response_growth":null,"codominant_stems":true,"lightning_damage":null,"dead_missing_bark":false,"cankers_galls_burls":null,"sapwood_damage_decay":null,"likelihood_of_failure":"possible","cavity_nest_hole_depth":null,"cavity_nest_hole_percent":null,"abnormal_bark_texture_color":false},"data_status":{"section_id":"data_status"},"load_factors":{"section_id":"load_factors","crown_density":"sparse","wind_exposure":"partial","wind_funneling":null,"relative_crown_size":"large","wind_funneling_notes":null,"interior_branches_density":"normal","vines_mistletoe_moss_notes":"No vines/mistletoe/moss observed","vines_mistletoe_moss_present":false,"recent_change_in_load_factors":"none noted"},"site_factors":{"notes":null,"topography":{"flat":true,"slope":false,"aspect":null,"slope_percent":null},"site_changes":{"none":true,"root_cuts":false,"grade_change":false,"site_clearing":false,"landscape_environment":"Suburban","changed_soil_hydrology":false},"common_weather":{"ice":null,"snow":null,"describe":"hot dry summers, rainy windy","heavy_rain":null,"strong_winds":null},"soil_conditions":{"percent":null,"shallow":null,"describe":null,"compacted":null,"saturated":null,"limited_volume":null,"pavement_over_roots":null},"history_of_failures":"No history of failures","prevailing_wind_direction":"W","section_id":"site_factors"},"work_priority":{"section_id":"work_priority"},"target_assessment":{"section_id":"target_assessment","targets":[{"target_number":"1","label":"Powerlines","zone_within_drip_line":true,"zone_within_1x_height":null,"zone_within_1_5x_height":null,"occupancy_rate":4,"practical_to_move":false,"restriction_practical":false},{"target_number":"2","label":"Patio","zone_within_drip_line":null,"zone_within_1x_height":true,"zone_within_1_5x_height":null,"occupancy_rate":2,"practical_to_move":false,"restriction_practical":false}]},"crown_and_branches":{"conks":null,"cracks":false,"codominant":false,"dead_twigs":false,"section_id":"crown_and_branches","lcr_percent":80,"cracks_notes":null,"included_bark":null,"main_concerns":"the tree's propensity to make v-shaped unions","load_on_defect":"n/a","heartwood_decay":false,"pruning_history":{"other":"professional","raised":null,"topped":null,"reduced":null,"thinned":null,"flush_cuts":null,"lion_tailed":null,"crown_cleaned":null},"response_growth":null,"codominant_notes":null,"lightning_damage":null,"unbalanced_crown":false,"weak_attachments":null,"dead_missing_bark":null,"dead_twigs_max_dia":null,"dead_twigs_percent":null,"cankers_galls_burls":null,"load_on_defect_notes":"the load on defect is not severe","sapwood_damage_decay":null,"broken_hangers_number":null,"heartwood_decay_notes":null,"likelihood_of_failure":"improbable","broken_hangers_max_dia":null,"over_extended_branches":false,"weak_attachments_notes":null,"cavity_nest_hole_percent":null,"previous_branch_failures":false,"similar_branches_present":null,"likelihood_of_failure_notes":"the likelihood of failure is not probable","previous_branch_failures_notes":null},"mitigation_options":{"options":[{"option":"continue to professionally maintain this tree","residual_risk":"low"}],"section_id":"mitigation_options"},"client_tree_details":{"of":1,"dbh":13,"gps":{"latitude":38.614122,"longitude":-121.278212},"sheet":1,"height":36,"section_id":"client_tree_details","time_frame":"18-month assessment","tools_used":"binoculars, smartphone, measuring tape","tree_number":"1","tree_species":"Afrocarpus","crown_spread_dia":18},"risk_categorization":[{"condition":"V-shaped union that is at the trunk to crown transition","part_size":"5","tree_part":"Trunk","risk_rating":"low","consequences":"severe","fall_distance":"25-30'","target_number":"1","condition_number":"1","impact_likelihood":"medium","target_protection":null,"failure_and_impact":"unlikely","failure_likelihood":"possible"}],"overall_residual_risk":{"rating":"low","section_id":"overall_residual_risk"},"roots_and_root_collar":{"dead":false,"ooze":null,"decay":false,"cavity":null,"cracks":null,"section_id":"roots_and_root_collar","collar_depth":null,"main_concerns":"no concerns for the root or root collar","soil_weakness":false,"stem_girdling":false,"cavity_percent":null,"load_on_defect":null,"conks_mushrooms":null,"response_growth":null,"cut_damaged_roots":null,"root_plate_lifting":false,"distance_from_trunk":null,"likelihood_of_failure":null,"collar_buried_not_visible":false},"inspection_limitations":{"none":false,"section_id":"inspection_limitations"},"tree_health_and_species":{"pests":"No pests observed","vigor":"high","abiotic":"No abiotic stress observed","foliage":{"none_dead":null,"none_seasonal":null,"normal_percent":100,"necrotic_percent":0,"chlorotic_percent":0},"section_id":"tree_health_and_species","species_failure_profile":{"roots":null,"trunk":null,"branches":null,"describe":"V-shaped unions with included bark"}},"overall_tree_risk_rating":{"rating":"low","section_id":"overall_tree_risk_rating"},"advanced_assessment_needed":{"needed":"no","section_id":"advanced_assessment_needed"},"advanced_assessment_type_reason":{"section_id":"advanced_assessment_type_reason"},"inspection_limitations_describe":{"section_id":"inspection_limitations_describe"},"notes_explanations_descriptions":{"notes":"The Afrocarpus tree is healthy and maintained, with regular pruning and no dead branches. The ground is mulched well, with no pavement over roots. It has a V-shaped trunk union with included bark but no decay, posing a risk to the","section_id":"notes_explanations_descriptions"},"recommended_inspection_interval":{"text":null,"section_id":"recommended_inspection_interval"}},"images":[{"caption":"Next to powerlines","uploaded_at":"2026-03-25T16:43:48.499871Z"},{"caption":"Trunk, v shaped unions","uploaded_at":"2026-03-25T16:43:52.338417Z"},{"caption":"Leaves","uploaded_at":"2026-03-25T16:43:54.872270Z"},{"caption":"Bark","uploaded_at":"2026-03-25T16:44:06.439526Z"}]}}]}