{"type":"FeatureCollection","features":[{"type":"Feature","geometry":{"type":"Point","coordinates":[-121.278346,38.614201]},"properties":{"job_number":"J0006","user_name":"Roger Erismann","form_data":{"trunk":{"cracks":true,"sap_ooze":false,"poor_taper":null,"section_id":"trunk","lean_degrees":null,"included_bark":null,"main_concerns":"the vertical cracks in the trunk","lean_corrected":null,"load_on_defect":"minor","conks_mushrooms":false,"heartwood_decay":false,"response_growth":null,"codominant_stems":null,"lightning_damage":false,"dead_missing_bark":false,"cankers_galls_burls":false,"sapwood_damage_decay":false,"likelihood_of_failure":"improbable","cavity_nest_hole_depth":null,"cavity_nest_hole_percent":null,"abnormal_bark_texture_color":false},"data_status":{"section_id":"data_status"},"load_factors":{"section_id":"load_factors","crown_density":"dense","wind_exposure":"partial","wind_funneling":false,"relative_crown_size":"large","wind_funneling_notes":null,"interior_branches_density":"normal","vines_mistletoe_moss_notes":"No vines/mistletoe/moss observed","vines_mistletoe_moss_present":false,"recent_change_in_load_factors":"no recent or planned changes"},"site_factors":{"notes":null,"topography":{"flat":true,"slope":false,"aspect":null,"slope_percent":null},"site_changes":{"none":true,"root_cuts":false,"grade_change":false,"site_clearing":false,"landscape_environment":null,"changed_soil_hydrology":false},"common_weather":{"ice":null,"snow":null,"describe":"Windy, rainy in winter","heavy_rain":null,"strong_winds":null},"soil_conditions":{"percent":null,"shallow":null,"describe":null,"compacted":null,"saturated":null,"limited_volume":null,"pavement_over_roots":null},"history_of_failures":"No history of failures","prevailing_wind_direction":"W","section_id":"site_factors"},"work_priority":{"section_id":"work_priority"},"target_assessment":{"section_id":"target_assessment","targets":[{"target_number":"1","label":"Patio","zone_within_drip_line":null,"zone_within_1x_height":true,"zone_within_1_5x_height":null,"occupancy_rate":2,"practical_to_move":false,"restriction_practical":false}]},"crown_and_branches":{"conks":null,"cracks":false,"codominant":false,"dead_twigs":false,"section_id":"crown_and_branches","lcr_percent":80,"cracks_notes":null,"included_bark":null,"main_concerns":"Likelihood of failure of the extended branches is improbable.","load_on_defect":"minor","heartwood_decay":false,"pruning_history":{"other":"professionally maintained","raised":null,"topped":null,"reduced":null,"thinned":null,"flush_cuts":null,"lion_tailed":null,"crown_cleaned":null},"response_growth":null,"codominant_notes":null,"lightning_damage":null,"unbalanced_crown":false,"weak_attachments":null,"dead_missing_bark":null,"dead_twigs_max_dia":null,"dead_twigs_percent":null,"cankers_galls_burls":null,"load_on_defect_notes":"No indicators of decay.","sapwood_damage_decay":false,"broken_hangers_number":null,"heartwood_decay_notes":null,"likelihood_of_failure":"improbable","broken_hangers_max_dia":null,"over_extended_branches":true,"weak_attachments_notes":null,"cavity_nest_hole_percent":null,"previous_branch_failures":false,"similar_branches_present":null,"likelihood_of_failure_notes":null,"previous_branch_failures_notes":null},"mitigation_options":{"options":[{"option":"keep up the maintenance","residual_risk":"low"}],"section_id":"mitigation_options"},"client_tree_details":{"of":1,"dbh":14,"gps":{"latitude":38.614201,"longitude":-121.278346},"sheet":1,"height":42,"section_id":"client_tree_details","time_frame":"18-month assessment","tools_used":"visual, measuring tape, smartphone, and smartphone","tree_number":"1","tree_species":"Acer oliverianum","crown_spread_dia":38},"risk_categorization":[{"condition":"overextended leaders over the patio","part_size":"1","tree_part":"Crown","risk_rating":"low","consequences":"significant","fall_distance":"30'","target_number":"1","condition_number":"1","impact_likelihood":"low","target_protection":"none","failure_and_impact":"unlikely","failure_likelihood":"possible"}],"overall_residual_risk":{"section_id":"overall_residual_risk"},"roots_and_root_collar":{"dead":false,"ooze":false,"decay":false,"cavity":false,"cracks":false,"section_id":"roots_and_root_collar","collar_depth":null,"main_concerns":"There are no main concerns with the trunk.","soil_weakness":false,"stem_girdling":false,"cavity_percent":null,"load_on_defect":null,"conks_mushrooms":false,"response_growth":null,"cut_damaged_roots":false,"root_plate_lifting":false,"distance_from_trunk":null,"likelihood_of_failure":null,"collar_buried_not_visible":false},"inspection_limitations":{"section_id":"inspection_limitations"},"tree_health_and_species":{"pests":"No pests observed","vigor":"high","abiotic":"No abiotic stress observed","foliage":{"none_dead":null,"none_seasonal":null,"normal_percent":100,"necrotic_percent":null,"chlorotic_percent":null},"section_id":"tree_health_and_species","species_failure_profile":{"roots":null,"trunk":null,"branches":null,"describe":"V-shaped unions and crossing branches can weaken branches and leaders."}},"overall_tree_risk_rating":{"section_id":"overall_tree_risk_rating"},"advanced_assessment_needed":{"section_id":"advanced_assessment_needed"},"advanced_assessment_type_reason":{"section_id":"advanced_assessment_type_reason"},"inspection_limitations_describe":{"section_id":"inspection_limitations_describe"},"notes_explanations_descriptions":{"notes":"The Oliver maple in Briarwood is well-maintained with multiple stems and few V-shaped unions. The soil is aerated and mulched, with a regular bark color. The tree extends over an unprotected patio, posing a low risk of branch fall","section_id":"notes_explanations_descriptions"},"recommended_inspection_interval":{"text":null,"section_id":"recommended_inspection_interval"}},"images":[{"caption":"Tree","uploaded_at":"2026-03-25T17:01:24.241672Z"},{"caption":"Trunk","uploaded_at":"2026-03-25T17:01:30.279636Z"},{"caption":"Interior branches","uploaded_at":"2026-03-25T17:01:36.655221Z"}]}}]}