{"type":"FeatureCollection","features":[{"type":"Feature","geometry":{"type":"Point","coordinates":[-121.278168,38.614296]},"properties":{"job_number":"J0004","user_name":"Roger Erismann","form_data":{"trunk":{"cracks":false,"sap_ooze":false,"poor_taper":null,"section_id":"trunk","lean_degrees":null,"included_bark":false,"main_concerns":"For the tree, there are no concerns.","lean_corrected":null,"load_on_defect":null,"conks_mushrooms":false,"heartwood_decay":false,"response_growth":null,"codominant_stems":false,"lightning_damage":false,"dead_missing_bark":null,"cankers_galls_burls":false,"sapwood_damage_decay":false,"likelihood_of_failure":null,"cavity_nest_hole_depth":null,"cavity_nest_hole_percent":null,"abnormal_bark_texture_color":null},"data_status":{"section_id":"data_status"},"load_factors":{"section_id":"load_factors","crown_density":"dense","wind_exposure":"partial","wind_funneling":false,"relative_crown_size":"medium","wind_funneling_notes":null,"interior_branches_density":"dense","vines_mistletoe_moss_notes":"No vines/mistletoe/moss observed","vines_mistletoe_moss_present":false,"recent_change_in_load_factors":"none noted"},"site_factors":{"notes":null,"topography":{"flat":true,"slope":false,"aspect":null,"slope_percent":null},"site_changes":{"none":true,"root_cuts":false,"grade_change":false,"site_clearing":false,"landscape_environment":"Suburban","changed_soil_hydrology":false},"common_weather":{"ice":null,"snow":null,"describe":"Windy and rainy in winter","heavy_rain":true,"strong_winds":true},"soil_conditions":{"percent":10,"shallow":null,"describe":"Good soil conditions","compacted":false,"saturated":null,"limited_volume":null,"pavement_over_roots":true},"history_of_failures":"No history of failures","prevailing_wind_direction":"W","section_id":"site_factors"},"work_priority":{"section_id":"work_priority"},"target_assessment":{"section_id":"target_assessment","targets":[{"target_number":"1","label":"Driveway","zone_within_drip_line":true,"zone_within_1x_height":null,"zone_within_1_5x_height":null,"occupancy_rate":2,"practical_to_move":false,"restriction_practical":false}]},"crown_and_branches":{"conks":false,"cracks":false,"codominant":false,"dead_twigs":true,"section_id":"crown_and_branches","lcr_percent":70,"cracks_notes":null,"included_bark":false,"main_concerns":"There are no main concerns in the crown.","load_on_defect":null,"heartwood_decay":false,"pruning_history":{"other":"professional","raised":null,"topped":null,"reduced":null,"thinned":null,"flush_cuts":null,"lion_tailed":null,"crown_cleaned":null},"response_growth":null,"codominant_notes":null,"lightning_damage":false,"unbalanced_crown":false,"weak_attachments":false,"dead_missing_bark":false,"dead_twigs_max_dia":1,"dead_twigs_percent":5,"cankers_galls_burls":false,"load_on_defect_notes":null,"sapwood_damage_decay":false,"broken_hangers_number":null,"heartwood_decay_notes":null,"likelihood_of_failure":null,"broken_hangers_max_dia":null,"over_extended_branches":false,"weak_attachments_notes":null,"cavity_nest_hole_percent":null,"previous_branch_failures":false,"similar_branches_present":false,"likelihood_of_failure_notes":null,"previous_branch_failures_notes":null},"mitigation_options":{"options":[{"option":"keep pruning the tree the way they have, regular maintenance","residual_risk":"low"}],"section_id":"mitigation_options"},"client_tree_details":{"of":1,"dbh":12,"gps":{"latitude":38.614296,"longitude":-121.278168},"sheet":1,"height":24,"section_id":"client_tree_details","time_frame":null,"tools_used":"measuring tape, binoculars","tree_number":"1","tree_species":"Arbutus andrachne","crown_spread_dia":24},"risk_categorization":[{"condition":"dead branches falling onto the driveway","part_size":"1","tree_part":"Crown","risk_rating":"low","consequences":"minor","fall_distance":"15'","target_number":"1","condition_number":"1","impact_likelihood":"low","target_protection":"none","failure_and_impact":"unlikely","failure_likelihood":"probable"}],"overall_residual_risk":{"rating":"low","section_id":"overall_residual_risk"},"roots_and_root_collar":{"dead":false,"ooze":false,"decay":false,"cavity":false,"cracks":null,"section_id":"roots_and_root_collar","collar_depth":2,"main_concerns":"Root collar buried, no issues stated.","soil_weakness":false,"stem_girdling":null,"cavity_percent":15,"load_on_defect":null,"conks_mushrooms":false,"response_growth":null,"cut_damaged_roots":null,"root_plate_lifting":false,"distance_from_trunk":null,"likelihood_of_failure":null,"collar_buried_not_visible":true},"inspection_limitations":{"none":true,"section_id":"inspection_limitations"},"tree_health_and_species":{"pests":"No pests observed","vigor":"high","abiotic":"No abiotic stress observed","foliage":{"none_dead":null,"none_seasonal":null,"normal_percent":100,"necrotic_percent":null,"chlorotic_percent":null},"section_id":"tree_health_and_species","species_failure_profile":{"roots":null,"trunk":null,"branches":null,"describe":null}},"overall_tree_risk_rating":{"rating":"low","section_id":"overall_tree_risk_rating"},"advanced_assessment_needed":{"needed":"no","section_id":"advanced_assessment_needed"},"advanced_assessment_type_reason":{"section_id":"advanced_assessment_type_reason"},"inspection_limitations_describe":{"section_id":"inspection_limitations_describe"},"notes_explanations_descriptions":{"notes":"The ornamental strawberry tree in Briarwood, Rancho Cordova is healthy with no abiotic stress. It has beautiful bark, new growth, and seasonal fruit. Risk of falling branches could damage cars or people.","section_id":"notes_explanations_descriptions"},"recommended_inspection_interval":{"text":"18months","section_id":"recommended_inspection_interval"}},"images":[{"caption":"The tree: ornamental strawberry tree","uploaded_at":"2026-03-30T23:17:45.579774Z"},{"caption":"Trunk","uploaded_at":"2026-03-30T23:17:51.953791Z"},{"caption":"Dense interior branches","uploaded_at":"2026-03-30T23:17:56.305386Z"},{"caption":"Driveway on either side","uploaded_at":"2026-03-30T23:17:59.958589Z"}]}}]}